[ {
  "OBJECT_ID": "1998-064B",
  "OBJECT_NAME": "PAN SAT",
  "NORAD_CAT_ID": "25520",
  "OBJECT_TYPE": "PAYLOAD",
  "PERIOD": "94.250",
  "INCLINATION": "28.456",
  "APOGEE": "485.760",
  "PERIGEE": "478.810",
  "ECCENTRICITY": "0.0005065",
  "MEAN_MOTION": "15.27835805",
  "TLE_LINE1": "1 25520U 98064B   16238.25548820  .00001133  00000-0  32612-4 0  9991",
  "TLE_LINE2": "2 25520  28.4560 199.2199 0005065 323.6615  36.3635 15.27835805988974",
  "LAUNCH_DATE": "1998-10-29",
  "LAUNCH_SITE": "AIR FORCE EASTERN TEST RANGE",
  "OWNER": "UNITED STATES OF AMERICA",
  "ORBIT_TYPE": "Low Earth Orbit",
  "OPERATIONAL_STATUS": "Nonoperational"
}, {
  "OBJECT_ID": "1998-066A",
  "OBJECT_NAME": "IRIDIUM 2",
  "NORAD_CAT_ID": "25527",
  "OBJECT_TYPE": "PAYLOAD",
  "PERIOD": "95.017",
  "INCLINATION": "85.5318",
  "APOGEE": "527.788",
  "PERIGEE": "511.030",
  "ECCENTRICITY": "0.0012148",
  "MEAN_MOTION": "15.15517589",
  "TLE_LINE1": "1 25527U 98066A   16239.48233446  .00001323  00000-0  67790-4 0  9997",
  "TLE_LINE2": "2 25527  85.5318 206.0477 0012148  92.4981 267.7649 15.15517589973229",
  "LAUNCH_DATE": "1998-11-06",
  "LAUNCH_SITE": "AIR FORCE WESTERN TEST RANGE",
  "OWNER": "UNITED STATES OF AMERICA",
  "ORBIT_TYPE": "Low Earth Orbit",
  "OPERATIONAL_STATUS": "Nonoperational"
}, {
  "OBJECT_ID": "1998-072A",
  "OBJECT_NAME": "NADEZHDA 5",
  "NORAD_CAT_ID": "25567",
  "OBJECT_TYPE": "PAYLOAD",
  "PERIOD": "104.970",
  "INCLINATION": "82.9475",
  "APOGEE": "1011.625",
  "PERIGEE": "974.511",
  "ECCENTRICITY": "0.0025175",
  "MEAN_MOTION": "13.71813747",
  "TLE_LINE1": "1 25567U 98072A   16238.91071392  .00000071  00000-0  62338-4 0  9997",
  "TLE_LINE2": "2 25567  82.9475 205.8040 0025175 332.2028  46.0859 13.71813747886704",
  "LAUNCH_DATE": "1998-12-10",
  "LAUNCH_SITE": "PLESETSK MISSILE AND SPACE COMPLEX",
  "OWNER": "COMMONWEALTH OF INDEPENDENT STATES",
  "ORBIT_TYPE": "Low Earth Orbit",
  "OPERATIONAL_STATUS": "Nonoperational"
}, {
  "OBJECT_ID": "1998-076A",
  "OBJECT_NAME": "COSMOS 2361",
  "NORAD_CAT_ID": "25590",
  "OBJECT_TYPE": "PAYLOAD",
  "PERIOD": "104.886",
  "INCLINATION": "82.9376",
  "APOGEE": "1012.085",
  "PERIGEE": "966.144",
  "ECCENTRICITY": "0.0031179",
  "MEAN_MOTION": "13.72918116",
  "TLE_LINE1": "1 25590U 98076A   16238.80800637 +.00000023 +00000-0 +92260-5 0  9992",
  "TLE_LINE2": "2 25590 082.9376 334.2811 0031179 347.9907 129.3220 13.72918116885403",
  "LAUNCH_DATE": "1998-12-24",
  "LAUNCH_SITE": "PLESETSK MISSILE AND SPACE COMPLEX",
  "OWNER": "COMMONWEALTH OF INDEPENDENT STATES",
  "ORBIT_TYPE": "Low Earth Orbit",
  "OPERATIONAL_STATUS": "Nonoperational"
}, {
  "OBJECT_ID": "1999-002A",
  "OBJECT_NAME": "ROCSAT 1",
  "NORAD_CAT_ID": "25616",
  "OBJECT_TYPE": "PAYLOAD",
  "PERIOD": "94.460",
  "INCLINATION": "34.9561",
  "APOGEE": "512.581",
  "PERIGEE": "472.307",
  "ECCENTRICITY": "0.0029309",
  "MEAN_MOTION": "15.24448435",
  "TLE_LINE1": "1 25616U 99002A   16238.95562877 +.00003211 +00000-0 +12752-3 0  9996",
  "TLE_LINE2": "2 25616 034.9561 210.0178 0029309 317.0446 042.7980 15.24448435964130",
  "LAUNCH_DATE": "1999-01-27",
  "LAUNCH_SITE": "AIR FORCE EASTERN TEST RANGE",
  "OWNER": "REPUBLIC OF CHINA (TAIWAN)",
  "ORBIT_TYPE": "Low Earth Orbit",
  "OPERATIONAL_STATUS": "Nonoperational"
}, {
  "OBJECT_ID": "1999-004A",
  "OBJECT_NAME": "GLOBALSTAR M023",
  "NORAD_CAT_ID": "25621",
  "OBJECT_TYPE": "PAYLOAD",
  "PERIOD": "114.073",
  "INCLINATION": "52.0111",
  "APOGEE": "1420.677",
  "PERIGEE": "1405.918",
  "ECCENTRICITY": "0.0009471",
  "MEAN_MOTION": "12.62341159",
  "TLE_LINE1": "1 25621U 99004A   16238.89864105 -.00000143 +00000-0 -21708-3 0  9990",
  "TLE_LINE2": "2 25621 052.0111 128.3406 0009471 216.2945 223.6115 12.62341159809430",
  "LAUNCH_DATE": "1999-02-09",
  "LAUNCH_SITE": "TYURATAM MISSILE AND SPACE COMPLEX",
  "OWNER": "GLOBALSTAR",
  "ORBIT_TYPE": "Low Earth Orbit",
  "OPERATIONAL_STATUS": "Nonoperational"
}, {
  "OBJECT_ID": "1999-004B",
  "OBJECT_NAME": "GLOBALSTAR M040",
  "NORAD_CAT_ID": "25622",
  "OBJECT_TYPE": "PAYLOAD",
  "PERIOD": "114.117",
  "INCLINATION": "51.992",
  "APOGEE": "1416.090",
  "PERIGEE": "1414.469",
  "ECCENTRICITY": "0.000104",
  "MEAN_MOTION": "12.6185969",
  "TLE_LINE1": "1 25622U 99004B   16238.90594681 -.00000181 +00000-0 -43495-3 0  9991",
  "TLE_LINE2": "2 25622 051.9920 127.8396 0001040 080.2644 000.0437 12.61859690809323",
  "LAUNCH_DATE": "1999-02-09",
  "LAUNCH_SITE": "TYURATAM MISSILE AND SPACE COMPLEX",
  "OWNER": "GLOBALSTAR",
  "ORBIT_TYPE": "Low Earth Orbit",
  "OPERATIONAL_STATUS": "Nonoperational"
}, {
  "OBJECT_ID": "1999-004C",
  "OBJECT_NAME": "GLOBALSTAR M036",
  "NORAD_CAT_ID": "25623",
  "OBJECT_TYPE": "PAYLOAD",
  "PERIOD": "121.359",
  "INCLINATION": "51.9965",
  "APOGEE": "1751.716",
  "PERIGEE": "1731.555",
  "ECCENTRICITY": "0.0012415",
  "MEAN_MOTION": "11.86552915",
  "TLE_LINE1": "1 25623U 99004C   16239.05476271 -.00000034  00000-0  70520-3 0  9998",
  "TLE_LINE2": "2 25623  51.9965  79.4492 0012415  14.5759 155.4717 11.86552915797066",
  "LAUNCH_DATE": "1999-02-09",
  "LAUNCH_SITE": "TYURATAM MISSILE AND SPACE COMPLEX",
  "OWNER": "GLOBALSTAR",
  "ORBIT_TYPE": "Low Earth Orbit",
  "OPERATIONAL_STATUS": "Nonoperational"
}, {
  "OBJECT_ID": "1999-004D",
  "OBJECT_NAME": "GLOBALSTAR M038",
  "NORAD_CAT_ID": "25624",
  "OBJECT_TYPE": "PAYLOAD",
  "PERIOD": "116.843",
  "INCLINATION": "51.9997",
  "APOGEE": "1540.649",
  "PERIGEE": "1537.175",
  "ECCENTRICITY": "0.0002194",
  "MEAN_MOTION": "12.32417533",
  "TLE_LINE1": "1 25624U 99004D   16238.70006560 -.00000069  00000-0  21264-3 0  9999",
  "TLE_LINE2": "2 25624  51.9997 336.3843 0002194 150.2882  15.6426 12.32417533805607",
  "LAUNCH_DATE": "1999-02-09",
  "LAUNCH_SITE": "TYURATAM MISSILE AND SPACE COMPLEX",
  "OWNER": "GLOBALSTAR",
  "ORBIT_TYPE": "Low Earth Orbit",
  "OPERATIONAL_STATUS": "Nonoperational"
}, {
  "OBJECT_ID": "1999-008C",
  "OBJECT_NAME": "SUNSAT",
  "NORAD_CAT_ID": "25636",
  "OBJECT_TYPE": "PAYLOAD",
  "PERIOD": "99.683",
  "INCLINATION": "96.4678",
  "APOGEE": "847.258",
  "PERIGEE": "639.644",
  "ECCENTRICITY": "0.0145764",
  "MEAN_MOTION": "14.44566932",
  "TLE_LINE1": "1 25636U 99008C   16239.47767982  .00000030  00000-0  15436-4 0  9995",
  "TLE_LINE2": "2 25636  96.4678 192.4695 0145764 176.6202 183.6015 14.44566932922226",
  "LAUNCH_DATE": "1999-02-23",
  "LAUNCH_SITE": "AIR FORCE WESTERN TEST RANGE",
  "OWNER": "SOUTH AFRICA",
  "ORBIT_TYPE": "Low Earth Orbit",
  "OPERATIONAL_STATUS": "Nonoperational"
}, {
  "OBJECT_ID": "1999-012A",
  "OBJECT_NAME": "GLOBALSTAR M022",
  "NORAD_CAT_ID": "25649",
  "OBJECT_TYPE": "PAYLOAD",
  "PERIOD": "119.758",
  "INCLINATION": "52.0054",
  "APOGEE": "1671.412",
  "PERIGEE": "1668.704",
  "ECCENTRICITY": "0.0001682",
  "MEAN_MOTION": "12.0241712",
  "TLE_LINE1": "1 25649U 99012A   16239.52832950 -.00000099  00000-0 -14167-3 0  9994",
  "TLE_LINE2": "2 25649  52.0054  34.4466 0001682 306.0511 130.6839 12.02417120789491",
  "LAUNCH_DATE": "1999-03-15",
  "LAUNCH_SITE": "TYURATAM MISSILE AND SPACE COMPLEX",
  "OWNER": "GLOBALSTAR",
  "ORBIT_TYPE": "Low Earth Orbit",
  "OPERATIONAL_STATUS": "Nonoperational"
}, {
  "OBJECT_ID": "1999-012B",
  "OBJECT_NAME": "GLOBALSTAR M041",
  "NORAD_CAT_ID": "25650",
  "OBJECT_TYPE": "PAYLOAD",
  "PERIOD": "120.342",
  "INCLINATION": "52.0009",
  "APOGEE": "1698.278",
  "PERIGEE": "1694.089",
  "ECCENTRICITY": "0.0002594",
  "MEAN_MOTION": "11.96586004",
  "TLE_LINE1": "1 25650U 99012B   16238.86688258 -.00000071  00000-0  19030-3 0  9995",
  "TLE_LINE2": "2 25650  52.0009 179.5194 0002594 144.0819 249.9431 11.96586004793369",
  "LAUNCH_DATE": "1999-03-15",
  "LAUNCH_SITE": "TYURATAM MISSILE AND SPACE COMPLEX",
  "OWNER": "GLOBALSTAR",
  "ORBIT_TYPE": "Low Earth Orbit",
  "OPERATIONAL_STATUS": "Nonoperational"
}, {
  "OBJECT_ID": "1999-012C",
  "OBJECT_NAME": "GLOBALSTAR M046",
  "NORAD_CAT_ID": "25651",
  "OBJECT_TYPE": "PAYLOAD",
  "PERIOD": "119.074",
  "INCLINATION": "52.0046",
  "APOGEE": "1641.088",
  "PERIGEE": "1637.690",
  "ECCENTRICITY": "0.0002119",
  "MEAN_MOTION": "12.0932306",
  "TLE_LINE1": "1 25651U 99012C   16239.56466633 -.00000127  00000-0 -42394-3 0  9997",
  "TLE_LINE2": "2 25651  52.0046 101.8145 0002119 316.1393  61.5530 12.09323060794823",
  "LAUNCH_DATE": "1999-03-15",
  "LAUNCH_SITE": "TYURATAM MISSILE AND SPACE COMPLEX",
  "OWNER": "GLOBALSTAR",
  "ORBIT_TYPE": "Low Earth Orbit",
  "OPERATIONAL_STATUS": "Nonoperational"
}, {
  "OBJECT_ID": "1999-019A",
  "OBJECT_NAME": "GLOBALSTAR M045",
  "NORAD_CAT_ID": "25676",
  "OBJECT_TYPE": "PAYLOAD",
  "PERIOD": "117.365",
  "INCLINATION": "51.9966",
  "APOGEE": "1563.528",
  "PERIGEE": "1561.416",
  "ECCENTRICITY": "0.000133",
  "MEAN_MOTION": "12.26936805",
  "TLE_LINE1": "1 25676U 99019A   16238.83716921 -.00000085 +00000-0 +79613-4 0  9995",
  "TLE_LINE2": "2 25676 051.9966 114.1238 0001330 054.9892 047.0767 12.26936805798690",
  "LAUNCH_DATE": "1999-04-15",
  "LAUNCH_SITE": "TYURATAM MISSILE AND SPACE COMPLEX",
  "OWNER": "GLOBALSTAR",
  "ORBIT_TYPE": "Low Earth Orbit",
  "OPERATIONAL_STATUS": "Nonoperational"
}, {
  "OBJECT_ID": "1999-019B",
  "OBJECT_NAME": "GLOBALSTAR M019",
  "NORAD_CAT_ID": "25677",
  "OBJECT_TYPE": "PAYLOAD",
  "PERIOD": "118.636",
  "INCLINATION": "51.9899",
  "APOGEE": "1620.097",
  "PERIGEE": "1619.276",
  "ECCENTRICITY": "5.13e-05",
  "MEAN_MOTION": "12.13794427",
  "TLE_LINE1": "1 25677U 99019B   16239.16319547 -.00000186  00000-0 -10009-2 0  9991",
  "TLE_LINE2": "2 25677  51.9899  17.6344 0000513 320.2258  92.7054 12.13794427794654",
  "LAUNCH_DATE": "1999-04-15",
  "LAUNCH_SITE": "TYURATAM MISSILE AND SPACE COMPLEX",
  "OWNER": "GLOBALSTAR",
  "ORBIT_TYPE": "Low Earth Orbit",
  "OPERATIONAL_STATUS": "Nonoperational"
}]